ONEWEB-0309             
1 49095U 21075W   23329.69587527  .00000100  00000+0  22426-3 0  9999
2 49095  87.9218 191.6248 0001754 103.8490 256.2836 13.17649983110518
ONEWEB-0310             
1 49096U 21075X   23329.64439336  .00000485  00000+0  13123-2 0  9998
2 49096  87.9020 176.5317 0001447  92.9496 267.1798 13.12444759112601
ONEWEB-0311             
1 49097U 21075Y   23329.70221586  .00000072  00000+0  15209-3 0  9992
2 49097  87.9220 191.6229 0002090  77.3058 282.8307 13.17648092110564
ONEWEB-0312             
1 49098U 21075Z   23329.63893412  .00000076  00000+0  16331-3 0  9999
2 49098  87.9236 191.6623 0001964  91.5541 268.5815 13.17649829110535
ONEWEB-0313             
1 49099U 21075AA  23329.69377246  .00000078  00000+0  16872-3 0  9990
2 49099  87.9218 191.6601 0001877  88.6991 271.4356 13.17648060110530
ONEWEB-0314             
1 49100U 21075AB  23329.68745847  .00000102  00000+0  22835-3 0  9992
2 49100  87.9220 191.6248 0002064  93.9134 266.2233 13.17649121110502
ONEWEB-0315             
1 49101U 21075AC  23329.61893925 -.00000188  00000+0 -55675-3 0  9991
2 49101  87.9011 176.5433 0001601  73.7386 286.3919 13.12431836112581
ONEWEB-0316             
1 49102U 21075AD  23329.58811266  .00000078  00000+0  16507-3 0  9993
2 49102  87.9141 161.3930 0001823  82.1111 278.0228 13.18682903114038
